[{"OBJECT_NAME":"IRIDIUM 172","OBJECT_ID":"2019-002F","EPOCH":"2026-03-09T21:35:38.790528","MEAN_MOTION":14.34217807,"ECCENTRICITY":0.00023275,"INCLINATION":86.397,"RA_OF_ASC_NODE":35.0518,"ARG_OF_PERICENTER":84.9159,"MEAN_ANOMALY":275.2302,"EPHEMERIS_TYPE":0,"CLASSIFICATION_TYPE":"U","NORAD_CAT_ID":43927,"ELEMENT_SET_NO":999,"REV_AT_EPOCH":37473,"BSTAR":0.00014166362,"MEAN_MOTION_DOT":4.17e-6,"MEAN_MOTION_DDOT":0},{"OBJECT_NAME":"COSMOS 2251 DEB","OBJECT_ID":"1993-036FD","EPOCH":"2026-03-09T15:10:33.305952","MEAN_MOTION":14.35741029,"ECCENTRICITY":0.0023841,"INCLINATION":74.0357,"RA_OF_ASC_NODE":145.6981,"ARG_OF_PERICENTER":207.0532,"MEAN_ANOMALY":152.938,"EPHEMERIS_TYPE":0,"CLASSIFICATION_TYPE":"U","NORAD_CAT_ID":33948,"ELEMENT_SET_NO":999,"REV_AT_EPOCH":89270,"BSTAR":0.00019719,"MEAN_MOTION_DOT":5.46e-6,"MEAN_MOTION_DDOT":0}]
